FLOCK 4BE-3             
1 60561U 24149CX  26188.20033639  .00013973  00000+0  32737-3 0  9996
2 60561  97.3686 272.3124 0004286 193.8091 166.3040 15.42201320105423
FLOCK 4BE-19            
1 60563U 24149CZ  26187.23513863  .00025084  00000+0  52666-3 0  9991
2 60563  97.3739 272.9703 0005037 204.1189 155.9825 15.45337330105364
FLOCK 4G-8              
1 62613U 25009E   26188.16439852  .00007754  00000+0  26844-3 0  9996
2 62613  97.3999 270.0895 0003249 223.0623 137.0363 15.30139425 81974
FLOCK 4G-13             
1 62621U 25009N   26188.21407323  .00062088  00000+0  11835-2 0  9993
2 62621  97.3941 271.8806 0005908 218.4498 141.6332 15.47952124 82091
FLOCK 4G-9              
1 62622U 25009P   26187.85070127  .00007155  00000+0  26136-3 0  9996
2 62622  97.3951 268.6586 0003367 241.4340 118.6561 15.28410728 81861
FLOCK 4G-7              
1 62624U 25009R   26188.47347778  .00006717  00000+0  23587-3 0  9996
2 62624  97.3937 269.6799 0001765 209.6336 150.4805 15.29729076 82007
FLOCK 4G-12             
1 62625U 25009S   26188.53376681  .00007254  00000+0  25501-3 0  9994
2 62625  97.4016 270.2824 0003384 217.4487 142.6518 15.29662883 82014
FLOCK 4G-11             
1 62629U 25009W   26187.73423478  .00008422  00000+0  29478-3 0  9991
2 62629  97.3917 269.0542 0001757 217.5384 142.5734 15.29757561 81903
FLOCK 4G-26             
1 62633U 25009AA  26188.46827572  .00008284  00000+0  28824-3 0  9990
2 62633  97.4010 270.3752 0002873 204.2978 155.8127 15.29952147 82016
FLOCK 4G-28             
1 62634U 25009AB  26188.19950198  .00006622  00000+0  19626-3 0  9996
2 62634  97.4017 272.8281 0001415 178.2373 181.8876 15.35187093 82150
FLOCK 4G-20             
1 62636U 25009AD  26187.71124117  .00124758  00000+0  16001-2 0  9993
2 62636  97.3842 272.8007 0005678 224.8181 135.2617 15.58709212 82157
FLOCK 4G-24             
1 62637U 25009AE  26188.02334394  .00006934  00000+0  23947-3 0  9992
2 62637  97.4019 270.2324 0002878 190.7168 169.4012 15.30258976 81966
FLOCK 4G-3              
1 62639U 25009AG  26188.21011183  .00006537  00000+0  22941-3 0  9995
2 62639  97.4020 270.1326 0002400 194.3468 165.7704 15.29760840 81968
FLOCK 4G-27             
1 62641U 25009AJ  26188.16395575  .00008490  00000+0  29761-3 0  9999
2 62641  97.3926 269.4449 0001757 193.4990 166.6203 15.29703512 81952
FLOCK 4G-29             
1 62642U 25009AK  26188.21501858  .00005806  00000+0  20402-3 0  9990
2 62642  97.4013 270.0978 0002589 190.7036 169.4150 15.29769042 81964
FLOCK 4G-22             
1 62645U 25009AN  26188.16756476  .00008245  00000+0  28942-3 0  9992
2 62645  97.4001 270.0869 0002168 183.9165 176.2059 15.29666108 81977
