{"fetched_at":"2026-07-07T18:29:08.171Z","source":"https://celestrak.org/NORAD/elements/gp.php?GROUP=planet&FORMAT=JSON","constellation":"superdove","records":[{"OBJECT_NAME":"FLOCK 4BE-3","OBJECT_ID":"2024-149CX","EPOCH":"2026-07-07T04:48:29.064096","CLASSIFICATION_TYPE":"U","MEAN_MOTION":15.4220132,"ECCENTRICITY":0.0004286,"INCLINATION":97.3686,"RA_OF_ASC_NODE":272.3124,"ARG_OF_PERICENTER":193.8091,"MEAN_ANOMALY":166.304,"EPHEMERIS_TYPE":0,"NORAD_CAT_ID":60561,"ELEMENT_SET_NO":999,"REV_AT_EPOCH":10542,"BSTAR":0.00032737,"MEAN_MOTION_DOT":0.00013973,"MEAN_MOTION_DDOT":0},{"OBJECT_NAME":"FLOCK 4BE-19","OBJECT_ID":"2024-149CZ","EPOCH":"2026-07-06T05:38:35.977632","CLASSIFICATION_TYPE":"U","MEAN_MOTION":15.4533733,"ECCENTRICITY":0.00050378,"INCLINATION":97.3739,"RA_OF_ASC_NODE":272.9703,"ARG_OF_PERICENTER":204.1189,"MEAN_ANOMALY":155.9825,"EPHEMERIS_TYPE":0,"NORAD_CAT_ID":60563,"ELEMENT_SET_NO":999,"REV_AT_EPOCH":10536,"BSTAR":0.00052665704,"MEAN_MOTION_DOT":0.00025084,"MEAN_MOTION_DDOT":0},{"OBJECT_NAME":"FLOCK 4G-8","OBJECT_ID":"2025-009E","EPOCH":"2026-07-07T03:56:44.032128","CLASSIFICATION_TYPE":"U","MEAN_MOTION":15.30139425,"ECCENTRICITY":0.0003249,"INCLINATION":97.3999,"RA_OF_ASC_NODE":270.0895,"ARG_OF_PERICENTER":223.0623,"MEAN_ANOMALY":137.0363,"EPHEMERIS_TYPE":0,"NORAD_CAT_ID":62613,"ELEMENT_SET_NO":999,"REV_AT_EPOCH":8197,"BSTAR":0.00026844,"MEAN_MOTION_DOT":0.00007754,"MEAN_MOTION_DDOT":0},{"OBJECT_NAME":"FLOCK 4G-13","OBJECT_ID":"2025-009N","EPOCH":"2026-07-07T05:08:15.927072","CLASSIFICATION_TYPE":"U","MEAN_MOTION":15.47952124,"ECCENTRICITY":0.0005908,"INCLINATION":97.3941,"RA_OF_ASC_NODE":271.8806,"ARG_OF_PERICENTER":218.4498,"MEAN_ANOMALY":141.6332,"EPHEMERIS_TYPE":0,"NORAD_CAT_ID":62621,"ELEMENT_SET_NO":999,"REV_AT_EPOCH":8209,"BSTAR":0.0011835,"MEAN_MOTION_DOT":0.00062088,"MEAN_MOTION_DDOT":0},{"OBJECT_NAME":"FLOCK 4G-9","OBJECT_ID":"2025-009P","EPOCH":"2026-07-06T20:25:00.589728","CLASSIFICATION_TYPE":"U","MEAN_MOTION":15.28410728,"ECCENTRICITY":0.0003367,"INCLINATION":97.3951,"RA_OF_ASC_NODE":268.6586,"ARG_OF_PERICENTER":241.434,"MEAN_ANOMALY":118.6561,"EPHEMERIS_TYPE":0,"NORAD_CAT_ID":62622,"ELEMENT_SET_NO":999,"REV_AT_EPOCH":8186,"BSTAR":0.00026136,"MEAN_MOTION_DOT":0.00007155,"MEAN_MOTION_DDOT":0},{"OBJECT_NAME":"FLOCK 4G-7","OBJECT_ID":"2025-009R","EPOCH":"2026-07-07T11:21:48.480192","CLASSIFICATION_TYPE":"U","MEAN_MOTION":15.29729076,"ECCENTRICITY":0.0001765,"INCLINATION":97.3937,"RA_OF_ASC_NODE":269.6799,"ARG_OF_PERICENTER":209.6336,"MEAN_ANOMALY":150.4805,"EPHEMERIS_TYPE":0,"NORAD_CAT_ID":62624,"ELEMENT_SET_NO":999,"REV_AT_EPOCH":8200,"BSTAR":0.00023587,"MEAN_MOTION_DOT":0.00006717,"MEAN_MOTION_DDOT":0},{"OBJECT_NAME":"FLOCK 4G-12","OBJECT_ID":"2025-009S","EPOCH":"2026-07-07T12:48:37.452384","CLASSIFICATION_TYPE":"U","MEAN_MOTION":15.29662883,"ECCENTRICITY":0.0003384,"INCLINATION":97.4016,"RA_OF_ASC_NODE":270.2824,"ARG_OF_PERICENTER":217.4487,"MEAN_ANOMALY":142.6518,"EPHEMERIS_TYPE":0,"NORAD_CAT_ID":62625,"ELEMENT_SET_NO":999,"REV_AT_EPOCH":8201,"BSTAR":0.00025501,"MEAN_MOTION_DOT":0.00007254,"MEAN_MOTION_DDOT":0},{"OBJECT_NAME":"FLOCK 4G-11","OBJECT_ID":"2025-009W","EPOCH":"2026-07-06T17:37:17.884992","CLASSIFICATION_TYPE":"U","MEAN_MOTION":15.29757561,"ECCENTRICITY":0.0001757,"INCLINATION":97.3917,"RA_OF_ASC_NODE":269.0542,"ARG_OF_PERICENTER":217.5384,"MEAN_ANOMALY":142.5734,"EPHEMERIS_TYPE":0,"NORAD_CAT_ID":62629,"ELEMENT_SET_NO":999,"REV_AT_EPOCH":8190,"BSTAR":0.00029478,"MEAN_MOTION_DOT":0.00008422,"MEAN_MOTION_DDOT":0},{"OBJECT_NAME":"FLOCK 4G-26","OBJECT_ID":"2025-009AA","EPOCH":"2026-07-07T11:14:19.022208","CLASSIFICATION_TYPE":"U","MEAN_MOTION":15.29952147,"ECCENTRICITY":0.0002873,"INCLINATION":97.401,"RA_OF_ASC_NODE":270.3752,"ARG_OF_PERICENTER":204.2978,"MEAN_ANOMALY":155.8127,"EPHEMERIS_TYPE":0,"NORAD_CAT_ID":62633,"ELEMENT_SET_NO":999,"REV_AT_EPOCH":8201,"BSTAR":0.00028824,"MEAN_MOTION_DOT":0.00008284,"MEAN_MOTION_DDOT":0},{"OBJECT_NAME":"FLOCK 4G-28","OBJECT_ID":"2025-009AB","EPOCH":"2026-07-07T04:47:16.971072","CLASSIFICATION_TYPE":"U","MEAN_MOTION":15.35187093,"ECCENTRICITY":0.0001415,"INCLINATION":97.4017,"RA_OF_ASC_NODE":272.8281,"ARG_OF_PERICENTER":178.2373,"MEAN_ANOMALY":181.8876,"EPHEMERIS_TYPE":0,"NORAD_CAT_ID":62634,"ELEMENT_SET_NO":999,"REV_AT_EPOCH":8215,"BSTAR":0.00019626,"MEAN_MOTION_DOT":0.00006622,"MEAN_MOTION_DDOT":0},{"OBJECT_NAME":"FLOCK 4G-20","OBJECT_ID":"2025-009AD","EPOCH":"2026-07-06T17:04:11.237088","CLASSIFICATION_TYPE":"U","MEAN_MOTION":15.58709212,"ECCENTRICITY":0.0005678,"INCLINATION":97.3842,"RA_OF_ASC_NODE":272.8007,"ARG_OF_PERICENTER":224.8181,"MEAN_ANOMALY":135.2617,"EPHEMERIS_TYPE":0,"NORAD_CAT_ID":62636,"ELEMENT_SET_NO":999,"REV_AT_EPOCH":8215,"BSTAR":0.0016001,"MEAN_MOTION_DOT":0.00124758,"MEAN_MOTION_DDOT":0},{"OBJECT_NAME":"FLOCK 4G-24","OBJECT_ID":"2025-009AE","EPOCH":"2026-07-07T00:33:36.916416","CLASSIFICATION_TYPE":"U","MEAN_MOTION":15.30258976,"ECCENTRICITY":0.0002878,"INCLINATION":97.4019,"RA_OF_ASC_NODE":270.2324,"ARG_OF_PERICENTER":190.7168,"MEAN_ANOMALY":169.4012,"EPHEMERIS_TYPE":0,"NORAD_CAT_ID":62637,"ELEMENT_SET_NO":999,"REV_AT_EPOCH":8196,"BSTAR":0.00023947,"MEAN_MOTION_DOT":0.00006934,"MEAN_MOTION_DDOT":0},{"OBJECT_NAME":"FLOCK 4G-3","OBJECT_ID":"2025-009AG","EPOCH":"2026-07-07T05:02:33.662112","CLASSIFICATION_TYPE":"U","MEAN_MOTION":15.2976084,"ECCENTRICITY":0.00024,"INCLINATION":97.402,"RA_OF_ASC_NODE":270.1326,"ARG_OF_PERICENTER":194.3468,"MEAN_ANOMALY":165.7704,"EPHEMERIS_TYPE":0,"NORAD_CAT_ID":62639,"ELEMENT_SET_NO":999,"REV_AT_EPOCH":8196,"BSTAR":0.00022941,"MEAN_MOTION_DOT":0.00006537,"MEAN_MOTION_DDOT":0},{"OBJECT_NAME":"FLOCK 4G-27","OBJECT_ID":"2025-009AJ","EPOCH":"2026-07-07T03:56:05.776800","CLASSIFICATION_TYPE":"U","MEAN_MOTION":15.29703512,"ECCENTRICITY":0.0001757,"INCLINATION":97.3926,"RA_OF_ASC_NODE":269.4449,"ARG_OF_PERICENTER":193.499,"MEAN_ANOMALY":166.6203,"EPHEMERIS_TYPE":0,"NORAD_CAT_ID":62641,"ELEMENT_SET_NO":999,"REV_AT_EPOCH":8195,"BSTAR":0.00029761,"MEAN_MOTION_DOT":0.0000849,"MEAN_MOTION_DDOT":0},{"OBJECT_NAME":"FLOCK 4G-29","OBJECT_ID":"2025-009AK","EPOCH":"2026-07-07T05:09:37.605312","CLASSIFICATION_TYPE":"U","MEAN_MOTION":15.29769042,"ECCENTRICITY":0.0002589,"INCLINATION":97.4013,"RA_OF_ASC_NODE":270.0978,"ARG_OF_PERICENTER":190.7036,"MEAN_ANOMALY":169.415,"EPHEMERIS_TYPE":0,"NORAD_CAT_ID":62642,"ELEMENT_SET_NO":999,"REV_AT_EPOCH":8196,"BSTAR":0.00020402,"MEAN_MOTION_DOT":0.00005806,"MEAN_MOTION_DDOT":0},{"OBJECT_NAME":"FLOCK 4G-22","OBJECT_ID":"2025-009AN","EPOCH":"2026-07-07T04:01:17.595264","CLASSIFICATION_TYPE":"U","MEAN_MOTION":15.29666108,"ECCENTRICITY":0.0002168,"INCLINATION":97.4001,"RA_OF_ASC_NODE":270.0869,"ARG_OF_PERICENTER":183.9165,"MEAN_ANOMALY":176.2059,"EPHEMERIS_TYPE":0,"NORAD_CAT_ID":62645,"ELEMENT_SET_NO":999,"REV_AT_EPOCH":8197,"BSTAR":0.00028942,"MEAN_MOTION_DOT":0.00008245,"MEAN_MOTION_DDOT":0}]}
